[{"OBJECT_NAME":"AAC-AIS-SAT3","OBJECT_ID":"2023-174DJ","EPOCH":"2026-03-09T21:54:37.399104","MEAN_MOTION":14.84090722,"ECCENTRICITY":0.00050238,"INCLINATION":97.6364,"RA_OF_ASC_NODE":121.8384,"ARG_OF_PERICENTER":288.7792,"MEAN_ANOMALY":71.2877,"EPHEMERIS_TYPE":0,"CLASSIFICATION_TYPE":"U","NORAD_CAT_ID":58997,"ELEMENT_SET_NO":999,"REV_AT_EPOCH":12642,"BSTAR":0.00054806577,"MEAN_MOTION_DOT":4.524e-5,"MEAN_MOTION_DDOT":0},{"OBJECT_NAME":"CZ-6A DEB","OBJECT_ID":"2022-151QZ","EPOCH":"2026-03-08T03:36:01.443744","MEAN_MOTION":14.64370174,"ECCENTRICITY":0.00996478,"INCLINATION":98.7621,"RA_OF_ASC_NODE":146.9911,"ARG_OF_PERICENTER":263.2541,"MEAN_ANOMALY":95.7312,"EPHEMERIS_TYPE":0,"CLASSIFICATION_TYPE":"U","NORAD_CAT_ID":54912,"ELEMENT_SET_NO":999,"REV_AT_EPOCH":17184,"BSTAR":0.0026821228,"MEAN_MOTION_DOT":0.00015209,"MEAN_MOTION_DDOT":0}]
